{
  "type": "FeatureCollection",
  "features": [
    {
      "type": "Feature",
      "properties": {
        "norad_id": 35915,
        "name": "IRIDIUM 33 DEB",
        "group": "iridium-33-debris",
        "lat": -49.860908721880634,
        "lon": -21.48663404867557,
        "alt_km": 637.6642164792429,
        "timestamp": "2025-12-12T22:42:12.930963+00:00",
        "meta_object_name": "IRIDIUM 33 DEB",
        "meta_object_id": "1997-051TY",
        "meta_epoch": "2025-12-07T18:02:16.498176",
        "meta_mean_motion": 14.80542095,
        "meta_eccentricity": 0.00101746,
        "meta_inclination": 86.3429,
        "meta_ra_of_asc_node": 345.2367,
        "meta_arg_of_pericenter": 205.9072,
        "meta_mean_anomaly": 154.1641,
        "meta_ephemeris_type": 0,
        "meta_classification_type": "U",
        "meta_norad_cat_id": 35915,
        "meta_element_set_no": 999,
        "meta_rev_at_epoch": 8012,
        "meta_bstar": 0.0030076362,
        "meta_mean_motion_dot": 0.00023136,
        "meta_mean_motion_ddot": 0,
        "tle_line1": "1 35915U 97051TY  25341.75157984  .00023136  00000+0  30076-2 0  9998",
        "tle_line2": "2 35915  86.3429 345.2367 0010174 205.9072 154.1641 14.80542095 80126"
      },
      "geometry": {
        "type": "Point",
        "coordinates": [
          -21.48663404867557,
          -49.860908721880634
        ]
      }
    },
    {
      "type": "Feature",
      "properties": {
        "norad_id": 35918,
        "name": "IRIDIUM 33 DEB",
        "group": "iridium-33-debris",
        "lat": 81.37445856365022,
        "lon": 100.24193517729091,
        "alt_km": 712.98156960102,
        "timestamp": "2025-12-12T22:42:12.930973+00:00",
        "meta_object_name": "IRIDIUM 33 DEB",
        "meta_object_id": "1997-051UB",
        "meta_epoch": "2025-12-11T00:33:20.254176",
        "meta_mean_motion": 14.51217376,
        "meta_eccentricity": 0.00274283,
        "meta_inclination": 86.4008,
        "meta_ra_of_asc_node": 76.552,
        "meta_arg_of_pericenter": 175.0767,
        "meta_mean_anomaly": 308.1534,
        "meta_ephemeris_type": 0,
        "meta_classification_type": "U",
        "meta_norad_cat_id": 35918,
        "meta_element_set_no": 999,
        "meta_rev_at_epoch": 85182,
        "meta_bstar": 0.001804054,
        "meta_mean_motion_dot": 7.222e-05,
        "meta_mean_motion_ddot": 0,
        "tle_line1": "1 35918U 97051UB  25345.02315109  .00007222  00000+0  18041-2 0  9996",
        "tle_line2": "2 35918  86.4008  76.5520 0027428 175.0767 308.1534 14.51217376851820"
      },
      "geometry": {
        "type": "Point",
        "coordinates": [
          100.24193517729091,
          81.37445856365022
        ]
      }
    },
    {
      "type": "Feature",
      "properties": {
        "norad_id": 35929,
        "name": "IRIDIUM 33 DEB",
        "group": "iridium-33-debris",
        "lat": -51.26865762196193,
        "lon": 137.1196169091534,
        "alt_km": 578.7173634992105,
        "timestamp": "2025-12-12T22:42:12.930983+00:00",
        "meta_object_name": "IRIDIUM 33 DEB",
        "meta_object_id": "1997-051UN",
        "meta_epoch": "2025-12-12T04:05:36.007296",
        "meta_mean_motion": 15.02344569,
        "meta_eccentricity": 0.00182618,
        "meta_inclination": 86.3329,
        "meta_ra_of_asc_node": 312.9007,
        "meta_arg_of_pericenter": 38.7849,
        "meta_mean_anomaly": 321.4691,
        "meta_ephemeris_type": 0,
        "meta_classification_type": "U",
        "meta_norad_cat_id": 35929,
        "meta_element_set_no": 999,
        "meta_rev_at_epoch": 87771,
        "meta_bstar": 0.0034493964,
        "meta_mean_motion_dot": 0.0004602,
        "meta_mean_motion_ddot": 0,
        "tle_line1": "1 35929U 97051UN  25346.17055564  .00046020  00000+0  34494-2 0  9990",
        "tle_line2": "2 35929  86.3329 312.9007 0018261  38.7849 321.4691 15.02344569877715"
      },
      "geometry": {
        "type": "Point",
        "coordinates": [
          137.1196169091534,
          -51.26865762196193
        ]
      }
    },
    {
      "type": "Feature",
      "properties": {
        "norad_id": 36011,
        "name": "IRIDIUM 33 DEB",
        "group": "iridium-33-debris",
        "lat": 54.62904237674772,
        "lon": -149.8357331126108,
        "alt_km": 749.0161332162743,
        "timestamp": "2025-12-12T22:42:12.931014+00:00",
        "meta_object_name": "IRIDIUM 33 DEB",
        "meta_object_id": "1997-051US",
        "meta_epoch": "2025-12-11T21:42:29.079072",
        "meta_mean_motion": 14.41326157,
        "meta_eccentricity": 0.0017563,
        "meta_inclination": 86.3411,
        "meta_ra_of_asc_node": 35.7829,
        "meta_arg_of_pericenter": 218.6873,
        "meta_mean_anomaly": 266.0791,
        "meta_ephemeris_type": 0,
        "meta_classification_type": "U",
        "meta_norad_cat_id": 36011,
        "meta_element_set_no": 999,
        "meta_rev_at_epoch": 64528,
        "meta_bstar": 0.00076231,
        "meta_mean_motion_dot": 2.489e-05,
        "meta_mean_motion_ddot": 0,
        "tle_line1": "1 36011U 97051US  25345.90450323  .00002489  00000+0  76231-3 0  9992",
        "tle_line2": "2 36011  86.3411  35.7829 0017563 218.6873 266.0791 14.41326157645287"
      },
      "geometry": {
        "type": "Point",
        "coordinates": [
          -149.8357331126108,
          54.62904237674772
        ]
      }
    },
    {
      "type": "Feature",
      "properties": {
        "norad_id": 36012,
        "name": "IRIDIUM 33 DEB",
        "group": "iridium-33-debris",
        "lat": 35.27424522229992,
        "lon": -50.02581795536814,
        "alt_km": 928.4113677316964,
        "timestamp": "2025-12-12T22:42:12.931026+00:00",
        "meta_object_name": "IRIDIUM 33 DEB",
        "meta_object_id": "1997-051UT",
        "meta_epoch": "2025-12-09T14:59:18.724128",
        "meta_mean_motion": 14.18848487,
        "meta_eccentricity": 0.0212452,
        "meta_inclination": 86.4428,
        "meta_ra_of_asc_node": 308.7902,
        "meta_arg_of_pericenter": 273.2722,
        "meta_mean_anomaly": 84.4182,
        "meta_ephemeris_type": 0,
        "meta_classification_type": "U",
        "meta_norad_cat_id": 36012,
        "meta_element_set_no": 999,
        "meta_rev_at_epoch": 65440,
        "meta_bstar": 0.0096093,
        "meta_mean_motion_dot": 0.00025103,
        "meta_mean_motion_ddot": 0,
        "tle_line1": "1 36012U 97051UT  25343.62452227  .00025103  00000+0  96093-2 0  9990",
        "tle_line2": "2 36012  86.4428 308.7902 0212452 273.2722  84.4182 14.18848487654405"
      },
      "geometry": {
        "type": "Point",
        "coordinates": [
          -50.02581795536814,
          35.27424522229992
        ]
      }
    },
    {
      "type": "Feature",
      "properties": {
        "norad_id": 36028,
        "name": "IRIDIUM 33 DEB",
        "group": "iridium-33-debris",
        "lat": 7.015469680110705,
        "lon": 126.148189203118,
        "alt_km": 591.4599068878542,
        "timestamp": "2025-12-12T22:42:12.931036+00:00",
        "meta_object_name": "IRIDIUM 33 DEB",
        "meta_object_id": "1997-051VK",
        "meta_epoch": "2025-12-11T04:10:27.703200",
        "meta_mean_motion": 14.95164373,
        "meta_eccentricity": 0.00218507,
        "meta_inclination": 86.3224,
        "meta_ra_of_asc_node": 307.4347,
        "meta_arg_of_pericenter": 58.0389,
        "meta_mean_anomaly": 302.2961,
        "meta_ephemeris_type": 0,
        "meta_classification_type": "U",
        "meta_norad_cat_id": 36028,
        "meta_element_set_no": 999,
        "meta_rev_at_epoch": 87101,
        "meta_bstar": 0.0035199415,
        "meta_mean_motion_dot": 0.00039008,
        "meta_mean_motion_ddot": 0,
        "tle_line1": "1 36028U 97051VK  25345.17393175  .00039008  00000+0  35199-2 0  9994",
        "tle_line2": "2 36028  86.3224 307.4347 0021850  58.0389 302.2961 14.95164373871016"
      },
      "geometry": {
        "type": "Point",
        "coordinates": [
          126.148189203118,
          7.015469680110705
        ]
      }
    },
    {
      "type": "Feature",
      "properties": {
        "norad_id": 36080,
        "name": "IRIDIUM 33 DEB",
        "group": "iridium-33-debris",
        "lat": -5.239925869422859,
        "lon": 7.5591644400979705,
        "alt_km": 752.4579905951605,
        "timestamp": "2025-12-12T22:42:12.931046+00:00",
        "meta_object_name": "IRIDIUM 33 DEB",
        "meta_object_id": "1997-051VM",
        "meta_epoch": "2025-12-09T08:24:04.128192",
        "meta_mean_motion": 14.46584309,
        "meta_eccentricity": 0.0017863,
        "meta_inclination": 86.3197,
        "meta_ra_of_asc_node": 9.4635,
        "meta_arg_of_pericenter": 167.4902,
        "meta_mean_anomaly": 192.6748,
        "meta_ephemeris_type": 0,
        "meta_classification_type": "U",
        "meta_norad_cat_id": 36080,
        "meta_element_set_no": 999,
        "meta_rev_at_epoch": 47365,
        "meta_bstar": 0.0010095558,
        "meta_mean_motion_dot": 3.665e-05,
        "meta_mean_motion_ddot": 0,
        "tle_line1": "1 36080U 97051VM  25343.35004778  .00003665  00000+0  10096-2 0  9997",
        "tle_line2": "2 36080  86.3197   9.4635 0017863 167.4902 192.6748 14.46584309473650"
      },
      "geometry": {
        "type": "Point",
        "coordinates": [
          7.5591644400979705,
          -5.239925869422859
        ]
      }
    }
  ]
}